OBJECT_NAME,OBJECT_ID,EPOCH,MEAN_MOTION,ECCENTRICITY,INCLINATION,RA_OF_ASC_NODE,ARG_OF_PERICENTER,MEAN_ANOMALY,EPHEMERIS_TYPE,CLASSIFICATION_TYPE,NORAD_CAT_ID,ELEMENT_SET_NO,REV_AT_EPOCH,BSTAR,MEAN_MOTION_DOT,MEAN_MOTION_DDOT
GALAXY 16 (G-16),2006-023A,2026-06-11T16:11:50.222976,1.00270854,.0002432,0.0459,150.6084,295.7384,317.6323,0,U,29236,999,7291,0,-.11E-5,0
EUTELSAT 33F,2006-032A,2026-06-11T16:49:29.112960,1.00267651,.0003773,1.6468,82.3031,356.0146,107.2260,0,U,29270,999,4725,0,.171E-5,0
JCSAT-3A,2006-033A,2026-06-11T16:25:33.698784,1.00272043,.0001942,0.0087,316.7634,129.1685,188.4872,0,U,29272,999,4768,0,-.328E-5,0
KOREASAT 5 (MUGUNGWHA 5),2006-034A,2026-06-11T20:20:38.771808,1.00269655,.0001434,1.7707,83.0433,51.2169,184.1452,0,U,29349,999,4126,0,-.342E-5,0
DIRECTV 9S,2006-043A,2026-06-11T16:11:12.784128,1.00270989,.00049,2.4058,80.9664,9.6032,311.0637,0,U,29494,999,5132,0,-.98E-6,0
OPTUS D1,2006-043B,2026-06-11T15:40:38.214048,1.00270533,.0003426,3.0199,79.7209,356.3212,211.1084,0,U,29495,999,7206,0,-.168E-5,0
BADR-4,2006-051A,2026-06-04T17:50:03.090912,1.00450212,.00078927,1.9707,81.2738,161.5231,306.4291,0,U,29526,999,5114,0,.167E-5,0
WILDBLUE-1,2006-054A,2026-06-11T10:22:18.014880,1.00272139,.0001347,2.7874,80.5521,7.3508,216.2536,0,U,29643,999,5373,0,-.33E-6,0
SKYNET 5A,2007-007B,2026-06-11T17:40:00.609024,1.00271133,.0004022,5.2875,73.8071,12.8238,173.6677,0,U,30794,999,7064,0,-.258E-5,0
ANIK F3,2007-009A,2026-06-11T16:06:13.262112,1.00271223,.0002484,1.1824,83.9126,0.8151,298.1031,0,U,31102,999,4650,0,.15E-6,0
ASTRA 1L,2007-016A,2026-06-11T16:33:03.187872,1.00272222,.0005173,1.3068,81.6151,7.5198,34.6783,0,U,31306,999,4493,0,-.168E-5,0
GALAXY 17 (G-17),2007-016B,2026-06-11T14:33:08.982144,1.00270447,.0004775,2.9574,79.9686,19.4204,293.8533,0,U,31307,999,6974,0,-.191E-5,0
INTELSAT 11 (IS-11),2007-044B,2026-06-11T15:40:08.261760,0.99053035,.0002072,3.5503,78.7348,88.5033,117.9596,0,U,32253,999,6839,0,-.268E-5,0
WGS F1 (USA 195),2007-046A,2026-06-11T16:27:56.180160,1.00268567,.0000203,0.0467,96.4433,322.9387,45.1532,0,U,32258,999,5228,0,-.251E-5,0
SKYNET 5B,2007-056B,2026-06-11T20:12:28.481184,1.00272235,.0004029,5.2394,73.5697,0.3794,154.4223,0,U,32294,999,6814,0,.153E-5,0
ASTRA 4A,2007-057A,2026-06-11T16:41:24.885888,1.00270355,.0002189,0.0141,329.6018,113.5551,72.0359,0,U,32299,999,5159,0,.49E-6,0
HORIZONS-2,2007-063B,2026-06-11T12:53:40.184160,1.00270448,.0003816,2.5868,80.6926,358.2929,300.5423,0,U,32388,999,6775,0,-.238E-5,0
THURAYA-3,2008-001A,2026-06-11T17:03:10.923840,1.00007860,.0001451,5.9797,35.7874,158.4591,42.8196,0,U,32404,999,6743,0,-.85E-6,0
THOR 5,2008-006A,2026-06-11T16:39:47.543328,1.00270330,.0002361,0.0320,258.7662,187.8832,62.5861,0,U,32487,999,6726,0,.7E-7,0
AMC-14,2008-011A,2026-06-11T15:15:50.209056,1.00354258,.004627,23.9988,20.5866,6.6203,165.6929,0,U,32708,999,6811,0,-.34E-6,0
DIRECTV 11,2008-013A,2026-06-11T14:29:09.363840,1.00270690,.0000365,0.0126,263.3490,89.6842,25.0254,0,U,32729,999,4553,0,-.109E-5,0
ICO G1,2008-016A,2026-06-11T08:13:38.486784,1.00272317,.00023,5.5329,36.1650,29.5225,224.5466,0,U,32763,999,6648,0,-.159E-5,0
VINASAT-1,2008-018A,2026-06-11T16:29:29.230368,1.00269797,.0001073,0.0208,304.3949,148.0944,186.8588,0,U,32767,999,6653,0,-.312E-5,0
STAR ONE C2,2008-018B,2026-06-11T12:56:09.943872,1.00271182,.0002544,1.2259,82.5100,4.7254,301.7056,0,U,32768,999,6659,0,-.26E-5,0
AMOS-3,2008-022A,2026-06-11T16:49:59.066112,1.00472781,.0001976,0.4405,86.3095,69.6164,31.4949,0,U,32794,999,8228,0,.168E-5,0
GALAXY 18 (G-18),2008-024A,2026-06-11T16:04:58.380960,1.00270179,.0002606,0.0007,0.4303,78.7540,299.0673,0,U,32951,999,4579,0,.42E-6,0
ZHONGXING-9,2008-028A,2026-06-11T21:27:21.663936,1.00271705,.0004266,0.7539,85.4456,335.0491,253.9793,0,U,33051,999,6598,0,-.233E-5,0
SKYNET 5C,2008-030A,2026-06-11T16:34:55.508736,1.00269723,.0003983,3.7741,77.1033,14.0462,39.8122,0,U,33055,999,6590,0,-.126E-5,0
TURKSAT 3A,2008-030B,2026-06-11T15:09:20.831040,1.00273935,.0005031,0.0431,77.5670,352.3633,99.3874,0,U,33056,999,5230,0,.163E-5,0
INTELSAT 25 (IS-25),2008-034A,2026-06-11T17:27:24.868224,0.99037401,.0003032,2.6949,80.4340,55.7917,171.6349,0,U,33153,999,6563,0,-.269E-5,0
ECHOSTAR 11,2008-035A,2026-06-11T14:26:02.164416,1.00271440,.0002172,0.9899,84.2380,345.4325,296.9888,0,U,33207,999,5115,0,-.42E-6,0
SUPERBIRD-C2,2008-038A,2026-06-11T17:18:46.927872,1.00269683,.0005948,2.3462,81.3286,25.3952,189.0216,0,U,33274,999,10567,0,-.291E-5,0
